H1 CPF  1  MCC 2022 11 23 16  8271 larets
H2  0304206 5557    27944 2022 11 22 23 45 00 2022 11 27 23 57 00   180 1 1  0 0 0
H9
10 0 59910 68220.000000 0     -1671768.118      1871708.498     -6617131.804
10 0 59910 68400.000000 0     -1961031.132      3079653.540     -6062874.756
10 0 59910 68580.000000 0     -2149305.685      4182915.407     -5288600.705
10 0 59910 68760.000000 0     -2233022.399      5138862.512     -4322177.013
10 0 59910 68940.000000 0     -2213401.897      5910005.771     -3198484.609
10 0 59910 69120.000000 0     -2096281.430      6465503.352     -1958223.001
10 0 59910 69300.000000 0     -1891740.501      6782450.760      -646480.893
10 0 59910 69480.000000 0     -1613539.416      6846886.968       688888.452
10 0 59910 69660.000000 0     -1278392.234      6654463.031      1999031.372
10 0 59910 69840.000000 0      -905105.780      6210709.656      3235928.502
10 0 59910 70020.000000 0      -513631.888      5530889.891      4354194.955
10 0 59910 70200.000000 0      -124085.490      4639457.478      5312778.812
10 0 59910 70380.000000 0       244227.399      3569132.466      6076486.439
10 0 59910 70560.000000 0       573719.733      2359656.423      6617268.208
10 0 59910 70740.000000 0       849328.498      1056279.037      6915235.321
10 0 59910 70920.000000 0      1059183.274      -291960.778      6959374.602
10 0 59910 71100.000000 0      1195111.861     -1634092.101      6747949.740
10 0 59910 71280.000000 0      1252964.388     -2919152.098      6288583.257
10 0 59910 71460.000000 0      1232743.257     -4098145.797      5598007.231
10 0 59910 71640.000000 0      1138533.109     -5125950.659      4701481.307
10 0 59910 71820.000000 0       978237.913     -5963094.170      3631898.503
10 0 59910 72000.000000 0       763132.499     -6577342.689      2428591.442
10 0 59910 72180.000000 0       507244.738     -6945014.068      1135868.881
10 0 59910 72360.000000 0       226597.701     -7051948.458      -198656.703
10 0 59910 72540.000000 0       -61649.245     -6894082.627     -1525890.807
10 0 59910 72720.000000 0      -340111.092     -6477580.431     -2797135.403
10 0 59910 72900.000000 0      -592086.617     -5818530.946     -3965925.166
10 0 59910 73080.000000 0      -802421.705     -4942240.317     -4989747.307
10 0 59910 73260.000000 0      -958281.877     -3882161.283     -5831568.328
10 0 59910 73440.000000 0     -1049797.560     -2678532.789     -6461116.367
10 0 59910 73620.000000 0     -1070556.163     -1376799.043     -6855890.301
10 0 59910 73800.000000 0     -1017926.227       -25878.980     -7001878.491
10 0 59910 73980.000000 0      -893205.126      1323649.190     -6893986.579
10 0 59910 74160.000000 0      -701586.434      2621391.998     -6536178.114
10 0 59910 74340.000000 0      -451951.642      3818967.274     -5941335.800
10 0 59910 74520.000000 0      -156489.707      4871771.338     -5130843.080
10 0 59910 74700.000000 0       169844.463      5740632.345     -4133883.443
10 0 59910 74880.000000 0       510013.951      6393295.836     -2986463.557
10 0 59910 75060.000000 0       845703.164      6805678.586     -1730174.390
10 0 59910 75240.000000 0      1158207.818      6962831.726      -410720.397
10 0 59910 75420.000000 0      1429370.960      6859555.251       923739.901
10 0 59910 75600.000000 0      1642516.120      6500618.776      2224375.318
10 0 59910 75780.000000 0      1783326.141      5900574.877      3443505.016
10 0 59910 75960.000000 0      1840624.747      5083172.487      4536387.763
10 0 59910 76140.000000 0      1807018.497      4080389.765      5462900.817
10 0 59910 76320.000000 0      1679362.705      2931133.551      6189027.358
10 0 59910 76500.000000 0      1459032.352      1679687.992      6688095.347
10 0 59910 76680.000000 0      1151987.289       373974.862      6941743.502
10 0 59910 76860.000000 0       768627.353      -936302.644      6940579.286
10 0 59910 77040.000000 0       323441.886     -2201562.774      6684526.860
10 0 59910 77220.000000 0      -165539.172     -3374240.374      6182849.293
10 0 59910 77400.000000 0      -677472.363     -4410602.509      5453833.800
10 0 59910 77580.000000 0     -1189576.013     -5272413.633      4524155.950
10 0 59910 77760.000000 0     -1678130.230     -5928407.666      3427939.667
10 0 59910 77940.000000 0     -2119560.642     -6355496.402      2205509.917
10 0 59910 78120.000000 0     -2491551.811     -6539642.178       901886.103
10 0 59910 78300.000000 0     -2774131.242     -6476352.001      -434925.867
10 0 59910 78480.000000 0     -2950663.494     -6170764.142     -1755767.875
10 0 59910 78660.000000 0     -3008704.011     -5637322.469     -3012203.603
10 0 59910 78840.000000 0     -2940668.100     -4899058.940     -4158344.470
10 0 59910 79020.000000 0     -2744279.634     -3986529.877     -5152540.467
10 0 59910 79200.000000 0     -2422785.013     -2936479.163     -5958864.966
10 0 59910 79380.000000 0     -1984932.774     -1790304.124     -6548351.809
10 0 59910 79560.000000 0     -1444722.729      -592395.375     -6899955.226
10 0 59910 79740.000000 0      -820942.759       611577.413     -7001214.660
10 0 59910 79920.000000 0      -136515.301      1776369.797     -6848630.182
10 0 59910 80100.000000 0       582327.641      2858811.757     -6447756.007
10 0 59910 80280.000000 0      1307020.648      3819364.417     -5813015.666
10 0 59910 80460.000000 0      2007768.390      4623541.932     -4967230.721
10 0 59910 80640.000000 0      2654739.902      5243154.031     -3940870.892
10 0 59910 80820.000000 0      3219315.073      5657328.762     -2771028.915
10 0 59910 81000.000000 0      3675334.363      5853267.822     -1500138.648
10 0 59910 81180.000000 0      4000296.023      5826694.071      -174466.253
10 0 59910 81360.000000 0      4176436.031      5581958.699      1157576.141
10 0 59910 81540.000000 0      4191632.811      5131792.003      2447223.868
10 0 59910 81720.000000 0      4040088.285      4496710.070      3647183.426
10 0 59910 81900.000000 0      3722743.367      3704097.057      4713411.149
10 0 59910 82080.000000 0      3247407.266      2787013.273      5606758.647
10 0 59910 82260.000000 0      2628588.531      1782791.037      6294423.905
10 0 59910 82440.000000 0      1887046.066       731486.982      6751143.896
10 0 59910 82620.000000 0      1049079.619      -325734.942      6960104.609
10 0 59910 82800.000000 0       145585.138     -1348223.812      6913548.498
10 0 59910 82980.000000 0      -789093.098     -2297417.771      6613064.436
10 0 59910 83160.000000 0     -1718475.810     -3138315.484      6069544.721
10 0 59910 83340.000000 0     -2605375.674     -3840788.602      5302815.639
10 0 59910 83520.000000 0     -3413401.624     -4380698.523      4340955.195
10 0 59910 83700.000000 0     -4108487.652     -4740771.624      3219288.663
10 0 59910 83880.000000 0     -4660361.963     -4911187.025      1979089.403
10 0 59910 84060.000000 0     -5043891.068     -4889851.296       666034.699
10 0 59910 84240.000000 0     -5240231.287     -4682338.921      -671528.730
10 0 59910 84420.000000 0     -5237722.678     -4301499.587     -1984432.639
10 0 59910 84600.000000 0     -5032473.235     -3766751.365     -3224563.278
10 0 59910 84780.000000 0     -4628603.289     -3103102.782     -4346667.355
10 0 59910 84960.000000 0     -4038152.086     -2339969.424     -5310008.209
10 0 59910 85140.000000 0     -3280661.329     -1509850.489     -6079811.671
10 0 59910 85320.000000 0     -2382467.055      -646933.515     -6628455.460
10 0 59910 85500.000000 0     -1375738.728       214308.317     -6936375.901
10 0 59910 85680.000000 0      -297311.137      1040467.028     -6992679.314
10 0 59910 85860.000000 0       812643.773      1800456.771     -6795467.803
10 0 59910 86040.000000 0      1912073.282      2466645.598     -6351886.795
10 0 59910 86220.000000 0      2958596.679      3015836.035     -5677888.737
99
